NORAD_CAT_ID,OBJECT_NAME,OBJECT_TYPE,EPOCH,MEAN_MOTION,ECCENTRICITY,INCLINATION,RA_OF_ASC_NODE,ARG_OF_PERICENTER,MEAN_ANOMALY,BSTAR,MEAN_MOTION_DOT,MEAN_MOTION_DDOT,TLE_LINE0,TLE_LINE1,TLE_LINE2,SEMIMAJOR_AXIS,PERIOD,APOGEE,PERIGEE,DECAYED
56482.0,STARLINK-6220,PAYLOAD,2023-12-16 04:12:58,14.98327808,0.0002838,70.0011,18.11,263.5907,96.4929,-1.6402e-05,-2.89e-06,0.0,0 STARLINK-6220,1 56482U 23064AL  23350.17567713 -.00000289  00000-0 -16402-4 0  9998,2 56482  70.0011  18.1100 0002838 263.5907  96.4929 14.98327808 34095,6950.2,96.107,574.037,570.092,0.0
56482.0,STARLINK-6220,PAYLOAD,2023-12-16 12:13:38,14.98328532,0.0002825,70.001,17.2685,263.1109,96.9729,-6.1838e-06,-1.67e-06,0.0,0 STARLINK-6220,1 56482U 23064AL  23350.50947669 -.00000167  00000-0 -61838-5 0  9996,2 56482  70.0010  17.2685 0002825 263.1109  96.9729 14.98328532 33781,6950.197,96.107,574.026,570.099,0.0
56482.0,STARLINK-6220,PAYLOAD,2023-12-17 04:14:59,14.98328817,0.0002766,70.001,15.5848,263.2155,96.8689,-1.0355e-05,-2.16e-06,0.0,0 STARLINK-6220,1 56482U 23064AL  23351.17707691 -.00000216  00000-0 -10355-4 0  9991,2 56482  70.0010  15.5848 0002766 263.2155  96.8689 14.98328817 34241,6950.197,96.107,573.984,570.139,0.0
56482.0,STARLINK-6220,PAYLOAD,2023-12-17 10:39:31,14.98328454,0.0002754,70.0011,14.9116,264.1514,95.9331,-1.0859e-05,-2.23e-06,0.0,0 STARLINK-6220,1 56482U 23064AL  23351.44411744 -.00000223  00000-0 -10859-4 0  9999,2 56482  70.0011  14.9116 0002754 264.1514  95.9331 14.98328454 33924,6950.198,96.107,573.977,570.149,0.0
56482.0,STARLINK-6220,PAYLOAD,2023-12-18 04:16:59,14.98334036,0.0002831,70.0009,13.0604,262.3762,97.7076,7.0012e-05,7.43e-06,0.0,0 STARLINK-6220,1 56482U 23064AL  23352.17847052  .00000743  00000-0  70012-4 0  9997,2 56482  70.0009  13.0604 0002831 262.3762  97.7076 14.98334036 34395,6950.18,96.107,574.013,570.078,0.0
56482.0,STARLINK-6220,PAYLOAD,2023-12-18 10:41:31,14.98336398,0.0002789,70.001,12.387,262.4317,97.6525,9.3915e-05,1.028e-05,0.0,0 STARLINK-6220,1 56482U 23064AL  23352.44550750  .00001028  00000-0  93915-4 0  9997,2 56482  70.0010  12.3870 0002789 262.4317  97.6525 14.98336398 34079,6950.173,96.107,573.977,570.1,0.0
56482.0,STARLINK-6220,PAYLOAD,2023-12-19 04:19:01,14.98322006,0.0002551,70.0023,10.5374,243.5523,116.5375,-4.7944e-05,-6.65e-06,0.0,0 STARLINK-6220,1 56482U 23064AL  23353.17988036 -.00000665  00000-0 -47944-4 0  9999,2 56482  70.0023  10.5374 0002551 243.5523 116.5375 14.98322006 34545,6950.218,96.108,573.856,570.31,0.0
56482.0,STARLINK-6220,PAYLOAD,2023-12-19 10:43:34,14.98318612,0.0002567,70.002,9.8634,253.0618,107.026,-8.9098e-05,-1.155e-05,0.0,0 STARLINK-6220,1 56482U 23064AL  23353.44692544 -.00001155  00000-0 -89098-4 0  9996,2 56482  70.0020   9.8634 0002567 253.0618 107.0260 14.98318612 34221,6950.228,96.108,573.877,570.309,0.0
56482.0,STARLINK-6220,PAYLOAD,2023-12-20 04:21:02,14.98331144,0.0002685,70.0017,8.0113,252.366,107.7206,-7.4855e-05,-9.86e-06,0.0,0 STARLINK-6220,1 56482U 23064AL  23354.18127851 -.00000986  00000-0 -74855-4 0  9998,2 56482  70.0017   8.0113 0002685 252.3660 107.7206 14.98331144 34693,6950.189,96.107,573.92,570.188,0.0
56482.0,STARLINK-6220,PAYLOAD,2023-12-20 10:45:34,14.98329817,0.0002693,70.0017,7.3381,253.5513,106.535,-8.0852e-05,-1.057e-05,0.0,0 STARLINK-6220,1 56482U 23064AL  23354.44831973 -.00001057  00000-0 -80852-4 0  9998,2 56482  70.0017   7.3381 0002693 253.5513 106.5350 14.98329817 34377,6950.193,96.107,573.93,570.187,0.0
56482.0,STARLINK-6220,PAYLOAD,2023-12-21 04:23:02,14.9833149,0.0003051,70.0008,5.4849,264.9657,95.1153,0.0001357,1.527e-05,0.0,0 STARLINK-6220,1 56482U 23064AL  23355.18267236  .00001527  00000-0  13570-3 0  9997,2 56482  70.0008   5.4849 0003051 264.9657  95.1153 14.98331490 34845,6950.188,96.107,574.174,569.933,0.0
56482.0,STARLINK-6220,PAYLOAD,2023-12-21 10:47:34,14.98335122,0.000296,70.0009,4.8119,262.123,97.9593,0.00017074,1.945e-05,0.0,0 STARLINK-6220,1 56482U 23064AL  23355.44970844  .00001945  00000-0  17074-3 0  9999,2 56482  70.0009   4.8119 0002960 262.1230  97.9593 14.98335122 34523,6950.177,96.107,574.099,569.985,0.0
56482.0,STARLINK-6220,PAYLOAD,2023-12-22 04:25:05,14.98327827,0.0002672,70.0011,2.9603,239.7672,120.3223,2.7964e-05,2.41e-06,0.0,0 STARLINK-6220,1 56482U 23064AL  23356.18408902  .00000241  00000-0  27964-4 0  9990,2 56482  70.0011   2.9603 0002672 239.7672 120.3223 14.98327827 34998,6950.2,96.107,573.922,570.208,0.0
56482.0,STARLINK-6220,PAYLOAD,2023-12-22 10:49:37,14.98330529,0.0002782,70.0011,2.2872,261.6455,98.4389,6.206e-05,6.48e-06,0.0,0 STARLINK-6220,1 56482U 23064AL  23356.45112809  .00000648  00000-0  62060-4 0  9995,2 56482  70.0011   2.2872 0002782 261.6455  98.4389 14.98330529 34670,6950.191,96.107,573.99,570.123,0.0
56482.0,STARLINK-6220,PAYLOAD,2023-12-23 02:50:56,14.98345674,0.0003205,70.0001,0.6018,276.5346,83.5448,0.00010825,1.199e-05,0.0,0 STARLINK-6220,1 56482U 23064AL  23357.11871480  .00001199  00000-0  10825-3 0  9999,2 56482  70.0001   0.6018 0003205 276.5346  83.5448 14.98345674 35138,6950.144,96.106,574.237,569.782,0.0
56482.0,STARLINK-6220,PAYLOAD,2023-12-23 10:51:36,14.98353513,0.0002941,70.0004,359.7607,268.5798,91.5024,0.00019282,2.21e-05,0.0,0 STARLINK-6220,1 56482U 23064AL  23357.45250339  .00002210  00000-0  19282-3 0  9991,2 56482  70.0004 359.7607 0002941 268.5798  91.5024 14.98353513 35186,6950.12,96.105,574.029,569.941,0.0
56482.0,STARLINK-6220,PAYLOAD,2023-12-24 02:52:58,14.9833672,0.0003046,70.0003,358.0776,270.4607,89.6202,-4.9364e-05,-6.82e-06,0.0,0 STARLINK-6220,1 56482U 23064AL  23358.12012175 -.00000682  00000-0 -49364-4 0  9998,2 56482  70.0003 358.0776 0003046 270.4607  89.6202 14.98336720 35280,6950.172,96.107,574.154,569.92,0.0
56482.0,STARLINK-6220,PAYLOAD,2023-12-24 09:17:30,14.98335287,0.0002614,70.0013,357.4045,260.3089,99.7775,-4.0189e-05,-5.72e-06,0.0,0 STARLINK-6220,1 56482U 23064AL  23358.38716053 -.00000572  00000-0 -40189-4 0  9996,2 56482  70.0013 357.4045 0002614 260.3089  99.7775 14.98335287 34963,6950.177,96.107,573.858,570.225,0.0
56482.0,STARLINK-6220,PAYLOAD,2023-12-25 02:54:59,14.98339987,0.00027,70.0009,355.5528,265.7765,94.3085,-0.00017042,-2.126e-05,0.0,0 STARLINK-6220,1 56482U 23064AL  23359.12151689 -.00002126  00000-0 -17042-3 0  9995,2 56482  70.0009 355.5528 0002700 265.7765  94.3085 14.98339987 35438,6950.162,96.106,573.904,570.15,0.0
56482.0,STARLINK-6220,PAYLOAD,2023-12-25 09:19:31,14.98338599,0.0002492,70.0016,354.8799,256.4459,103.6423,-0.00013487,-1.702e-05,0.0,0 STARLINK-6220,1 56482U 23064AL  23359.38855473 -.00001702  00000-0 -13487-3 0  9993,2 56482  70.0016 354.8799 0002492 256.4459 103.6423 14.98338599 35116,6950.166,96.106,573.763,570.299,0.0
56482.0,STARLINK-6220,PAYLOAD,2023-12-26 02:56:59,14.98327026,0.0002532,70.0018,353.0293,250.5769,109.5117,-1.0868e-05,-2.23e-06,0.0,0 STARLINK-6220,1 56482U 23064AL  23360.12291586 -.00000223  00000-0 -10868-4 0  9994,2 56482  70.0018 353.0293 0002532 250.5769 109.5117 14.98327026 35581,6950.202,96.107,573.827,570.307,0.0
56482.0,STARLINK-6220,PAYLOAD,2023-12-26 09:21:32,14.9832754,0.0002616,70.0014,352.3553,262.3577,97.7285,-1.9373e-05,-3.24e-06,0.0,0 STARLINK-6220,1 56482U 23064AL  23360.38995671 -.00000324  00000-0 -19373-4 0  9990,2 56482  70.0014 352.3553 0002616 262.3577  97.7285 14.98327540 35269,6950.2,96.107,573.884,570.247,0.0
56482.0,STARLINK-6220,PAYLOAD,2023-12-27 02:59:00,14.98331072,0.0002739,70.0011,350.5035,264.3166,95.768,4.7901e-06,-3.6e-07,0.0,0 STARLINK-6220,1 56482U 23064AL  23361.12431364 -.00000036  00000-0  47901-5 0  9995,2 56482  70.0011 350.5035 0002739 264.3166  95.7680 14.98331072 35737,6950.19,96.107,573.958,570.151,0.0
56482.0,STARLINK-6220,PAYLOAD,2023-12-27 09:23:32,14.98325423,0.0002638,70.001,349.8294,265.7282,94.3575,0.00019076,2.184e-05,0.0,0 STARLINK-6220,1 56482U 23064AL  23361.39135271  .00002184  00000-0  19076-3 0  9997,2 56482  70.0010 349.8294 0002638 265.7282  94.3575 14.98325423 35412,6950.207,96.107,573.906,570.239,0.0
56482.0,STARLINK-6220,PAYLOAD,2023-12-28 03:01:01,14.98319939,0.0002741,70.0009,347.9781,268.4529,91.6316,0.00020166,2.313e-05,0.0,0 STARLINK-6220,1 56482U 23064AL  23362.12571343  .00002313  00000-0  20166-3 0  9999,2 56482  70.0009 347.9781 0002741 268.4529  91.6316 14.98319939 35888,6950.224,96.108,573.994,570.184,0.0
56482.0,STARLINK-6220,PAYLOAD,2023-12-28 09:25:33,14.9833083,0.0002748,70.0014,347.3049,271.017,89.0674,7.1972e-05,7.66e-06,0.0,0 STARLINK-6220,1 56482U 23064AL  23362.39275081  .00000766  00000-0  71972-4 0  9990,2 56482  70.0014 347.3049 0002748 271.0170  89.0674 14.98330830 35560,6950.19,96.107,573.965,570.145,0.0
56482.0,STARLINK-6220,PAYLOAD,2023-12-29 03:03:03,14.98322632,0.000251,70.0017,345.4539,268.4351,91.652,-7.2857e-05,-9.62e-06,0.0,0 STARLINK-6220,1 56482U 23064AL  23363.12712027 -.00000962  00000-0 -72857-4 0  9991,2 56482  70.0017 345.4539 0002510 268.4351  91.6520 14.98322632 36037,6950.216,96.107,573.825,570.336,0.0
56482.0,STARLINK-6220,PAYLOAD,2023-12-29 09:27:35,14.98319807,0.0002595,70.0016,344.7803,269.8458,90.2403,-9.1102e-05,-1.179e-05,0.0,0 STARLINK-6220,1 56482U 23064AL  23363.39416402 -.00001179  00000-0 -91102-4 0  9993,2 56482  70.0016 344.7803 0002595 269.8458  90.2403 14.98319807 35717,6950.224,96.108,573.893,570.286,0.0
56482.0,STARLINK-6220,PAYLOAD,2023-12-30 03:05:03,14.98333081,0.0003147,70.0003,342.9288,271.6363,88.4436,-2.4733e-05,-3.88e-06,0.0,0 STARLINK-6220,1 56482U 23064AL  23364.12851373 -.00000388  00000-0 -24733-4 0  9992,2 56482  70.0003 342.9288 0003147 271.6363  88.4436 14.98333081 36187,6950.183,96.107,574.236,569.861,0.0
56482.0,STARLINK-6220,PAYLOAD,2023-12-30 09:29:35,14.98337398,0.0002816,70.0011,342.2559,267.6816,92.4021,4.341e-05,4.25e-06,0.0,0 STARLINK-6220,1 56482U 23064AL  23364.39554822  .00000425  00000-0  43410-4 0  9993,2 56482  70.0011 342.2559 0002816 267.6816  92.4021 14.98337398 35864,6950.17,96.107,573.992,570.078,0.0
